2010 WG9,e,70.3505,92.0621,292.9632,52.91252,0.0025607,0.64545640,11.3332,03/23.0/2018,2000,H 8.3,0.15
# From MPO456797
2011 HO60,e,22.2144,353.1796,242.3613,96.19370,0.0010447,0.61910851,1.1390,03/23.0/2018,2000,H 6.2,0.15
# From MPO545808
2011 HP83,e,28.6514,12.3332,210.6283,52.89955,0.0025617,0.31488292,16.8286,05/31.0/2020,2000,H 4.9,0.15
# From MPO686679
2011 HM102,e,29.3405,100.9729,155.8622,30.29976,0.0059094,0.08329496,39.0994,01/21.0/2022,2000,H 8.30,0.15
# From MPO413624
2011 HZ102,e,2.3968,154.6003,84.8546,43.53309,0.0034314,0.01273502,46.1830,04/27.0/2019,2000,H 9.2,0.15
# From MPO256132
2011 HD103,e,5.7116,121.2032,302.8808,44.34352,0.0033378,0.25174123,240.7260,04/27.0/2019,2000,H 8.4,0.15
# From MPO256132
2011 HE103,e,6.7927,260.3630,216.0830,44.08076,0.0033677,0.07594294,166.9364,04/27.0/2019,2000,H 9.5,0.15
# From MPO413624
2011 HF103,e,3.0568,152.3484,45.1017,43.33957,0.0034544,0.05090766,82.9407,04/27.0/2019,2000,H 8.5,0.15
# From MPO413625
2011 HK103,e,6.4083,121.1218,227.8176,53.75475,0.0025008,0.31487972,326.3055,04/27.0/2019,2000,H 8.4,0.15
# From MPO413625
2011 JW31,e,1.8694,208.8075,123.0513,45.96615,0.0031626,0.10040219,322.8158,04/27.0/2019,2000,H 9.3,0.15
# From MPO413625
2011 JX31,e,3.3088,139.1079,23.9824,45.29229,0.0032335,0.10865488,110.9376,04/27.0/2019,2000,H 8.2,0.15
# From MPO413625
2011 JY31,e,2.5974,231.2100,103.1569,44.34571,0.0033375,0.06154376,317.5898,04/27.0/2019,2000,H 8.8,0.15
# From MPO413625
2011 JA32,e,3.2104,235.7424,103.2547,46.99734,0.0030591,0.13716127,319.7572,04/27.0/2019,2000,H 9.8,0.15
# From MPEC 2022-A85
2011 OF45,e,19.6348,315.9439,53.5549,9.011726,0.0364328,0.14075505,92.8037,01/21.0/2022,2000,H12.77,0.15
# From MPO562327
2011 QF99,e,10.8234,222.4973,288.0569,19.03867,0.0118645,0.17538959,295.6578,05/31.0/2020,2000,H 9.8,0.15
# From MPO473222
2011 UP410,e,2.7427,241.6785,179.0635,39.42996,0.0039807,0.17138825,350.8108,04/27.0/2019,2000,H 8.4,0.15
# From MPO317692
2011 UQ410,e,3.2453,10.7899,334.6332,39.26876,0.0040053,0.26330230,38.7083,04/27.0/2019,2000,H 9.5,0.15
# From MPO317693
2011 UR410,e,17.3388,27.0595,50.3709,39.21569,0.0040134,0.26477780,343.8560,04/27.0/2019,2000,H 9.6,0.15
# From MPO456811
2011 US410,e,11.8982,20.6070,289.4662,39.35296,0.0039924,0.25580693,61.5109,03/23.0/2018,2000,H 8.5,0.15
# From MPO317693
2011 UU410,e,12.6319,19.3352,14.8940,39.12349,0.0040276,0.26013051,7.9838,04/27.0/2019,2000,H 9.8,0.15
# From MPO339458
2011 UV410,e,4.3071,332.0483,29.3901,39.28750,0.0040024,0.25814684,27.1554,04/27.0/2019,2000,H 7.9,0.15
# From MPEC 2020-V40
2011 UW410,e,10.7362,17.8581,285.8070,39.66936,0.0039448,0.22134115,77.2696,12/17.0/2020,2000,H 8.3,0.15
# From MPEC 2020-V40
2011 UX410,e,17.4889,223.9484,263.3824,39.34081,0.0039943,0.32539492,315.7084,12/17.0/2020,2000,H 8.3,0.15
# From MPO317694
2011 UY410,e,8.5930,12.4041,1.4711,39.16570,0.0040211,0.13449287,25.6051,04/27.0/2019,2000,H 9.2,0.15
# From MPO599335
2011 UF411,e,5.8837,261.6732,195.5971,47.76052,0.0029861,0.34463270,335.0503,12/17.0/2020,2000,H 8.44,0.15
# From MPEC 2020-V40
2011 UJ411,e,5.1340,21.5528,28.1642,42.31013,0.0035813,0.11898122,357.9825,12/17.0/2020,2000,H 8.4,0.15
# From MPO317695
2011 UL411,e,1.9747,308.2788,80.6308,42.07632,0.0036112,0.06912019,10.5841,04/27.0/2019,2000,H 8.7,0.15
# From MPEC 2020-V40
2011 UO411,e,5.2912,309.9028,98.0080,42.30149,0.0035824,0.20620684,0.4686,12/17.0/2020,2000,H 8.7,0.15
# From MPO377829
2011 UP411,e,13.4646,231.9373,159.9383,75.29839,0.0015084,0.48811507,3.7844,04/27.0/2019,2000,H 8.4,0.15
# From MPO543762
2011 UR411,e,26.5816,23.3480,44.7358,61.61058,0.0020381,0.43096232,353.5692,05/31.0/2020,2000,H 8.5,0.15
# From MPO660087
2011 UC412,e,3.1268,337.2403,32.4704,43.53637,0.0034310,0.07421928,30.5002,07/05.0/2021,2000,H 7.82,0.15
# From MPO456811
2011 UD412,e,5.5004,358.3785,104.5396,45.18971,0.0032445,0.04942395,301.5306,03/23.0/2018,2000,H 6.9,0.15
# From MPO317698
2011 UH412,e,15.1342,21.5312,95.7294,42.42641,0.0035666,0.11344824,299.2099,04/27.0/2019,2000,H 8.2,0.15
# From MPO317699
2011 UJ412,e,29.8019,27.0454,155.2913,41.89575,0.0036345,0.03013526,222.2261,04/27.0/2019,2000,H 8.1,0.15
# From MPO317699
2011 UM412,e,10.7598,231.6607,122.3038,45.22887,0.0032403,0.13133119,39.0588,04/27.0/2019,2000,H 8.5,0.15
# From MPO317700
2011 UV412,e,11.5657,219.2741,64.1000,48.65343,0.0029042,0.30620349,77.2396,04/27.0/2019,2000,H 8.0,0.15
# From MPO317700
2011 UW412,e,13.0074,233.1453,133.6534,77.82579,0.0014356,0.52013602,10.3476,04/27.0/2019,2000,H 9.0,0.15
# From MPO317700
2011 UZ412,e,6.8128,9.7789,26.5201,36.29108,0.0045082,0.12996543,9.2046,04/27.0/2019,2000,H 9.3,0.15
# From MPO703538
2012 DR30,e,78.0003,341.5639,195.3352,1130,0.0000259,0.98713016,0.0000,03/18.9426/2011,2000,H 7.12,0.15
# From MPO246980
2012 DS85,e,16.7895,129.0344,302.8715,18.89567,0.0119994,0.13102460,76.9131,04/27.0/2019,2000,H 9.4,0.15
# From MPO562373
2012 GV1,e,18.8963,168.5537,341.3872,18.59364,0.0122930,0.55427208,46.1240,05/31.0/2020,2000,H11.9,0.15
# From MPO543816
2012 GX17,e,32.5398,209.2393,243.6274,37.38492,0.0043118,0.54678465,49.2887,05/31.0/2020,2000,H 7.6,0.15
# From MPO419432
2012 PD26,e,7.6987,209.1706,85.0953,20.41641,0.0106840,0.50599195,38.4731,04/27.0/2019,2000,H11.2,0.15
# From MPO369168
2012 UG177,e,21.9204,261.7807,129.9306,39.16241,0.0040216,0.22234154,9.0196,04/27.0/2019,2000,H 9.6,0.15
# From MPO317745
2012 UH177,e,23.8196,255.0175,346.4021,39.30760,0.0039993,0.19368608,148.3344,04/27.0/2019,2000,H 7.9,0.15
# From MPO317745
2012 UJ177,e,15.6446,298.7294,46.5537,55.02224,0.0024149,0.43312186,24.4179,04/27.0/2019,2000,H 9.1,0.15
# From MPO543901
2012 UK177,e,24.8929,251.4227,162.1373,92.06726,0.0011157,0.61601717,358.5907,05/31.0/2020,2000,H 8.7,0.15
# From MPO660144
2012 UL177,e,19.2603,272.0723,146.0478,40.78490,0.0037840,0.11858735,350.2536,07/05.0/2021,2000,H 7.47,0.15
# From MPO317745
2012 UM177,e,16.1967,287.5712,53.3681,43.41301,0.0034457,0.05828126,53.5853,04/27.0/2019,2000,H 8.6,0.15
# From MPO660144
2012 UN177,e,20.0735,341.1280,69.8431,43.26638,0.0034632,0.16022609,359.4172,07/05.0/2021,2000,H 7.55,0.15
# From MPO317746
2012 UO177,e,16.4661,289.7872,334.6555,41.43084,0.0036959,0.03861858,134.0419,04/27.0/2019,2000,H 8.3,0.15
# From MPO434984
2012 UP177,e,16.6291,280.0122,57.1094,42.70683,0.0035315,0.10070301,54.7781,04/27.0/2019,2000,H 8.1,0.15
# From MPO357189
2012 UQ177,e,19.5981,330.0813,120.3487,51.65294,0.0026550,0.30811214,335.5499,04/27.0/2019,2000,H 8.0,0.15
# From MPO434984
2012 UR177,e,16.3692,291.3583,158.3872,73.13070,0.0015760,0.48689783,344.7282,04/27.0/2019,2000,H 7.9,0.15
# From MPO317746
2012 US177,e,17.2468,271.6607,92.0651,55.87095,0.0023601,0.36513454,18.8061,04/27.0/2019,2000,H 8.7,0.15
# From MPO317746
2012 UT177,e,16.3584,320.3572,282.2056,47.33592,0.0030263,0.13138442,152.8877,04/27.0/2019,2000,H 7.6,0.15
# From MPO686823
2012 UV177,e,20.8459,265.6195,201.0843,30.12436,0.0059611,0.07227638,311.6033,01/21.0/2022,2000,H 9.28,0.15
# From MPO317747
2012 UW177,e,53.9232,20.0283,33.9662,29.95239,0.0060125,0.25639859,6.4499,04/27.0/2019,2000,H11.3,0.15
# From MPEC 2021-W43
2012 VP113,e,24.0729,90.7540,293.7432,269.2753,0.0002231,0.70128509,3.5157,01/21.0/2022,2000,H 4.09,0.15
# From MPO599408
2012 XR157,e,29.9840,223.5795,276.4530,47.53779,0.0030071,0.22188501,323.0175,12/17.0/2020,2000,H 6.4,0.15
# From MPO686864
2013 BL76,e,98.5667,180.0235,165.9832,989.2296,0.0000317,0.99153406,0.0000,10/23.9505/2012,2000,H10.88,0.15
# From MPO703625
2013 FA28,e,1.5378,301.6733,23.2840,44.05004,0.0033712,0.04536660,251.1835,01/21.0/2022,2000,H 6.13,0.15
# From MPO477701
2013 FD28,e,6.8286,251.3438,201.9951,39.79023,0.0039268,0.17977040,96.4346,04/27.0/2019,2000,H 6.7,0.15
# From MPO473277
2013 JX14,e,10.4450,245.8738,274.5024,11.31104,0.0259090,0.35424457,89.1682,04/27.0/2019,2000,H11.9,0.15
# From MPO473277
2013 JU63,e,4.2981,278.3821,336.0122,49.17107,0.0028585,0.26708003,350.3635,04/27.0/2019,2000,H 7.4,0.15
# From MPO473277
2013 JV63,e,8.2176,350.5833,160.8515,46.77240,0.0030812,0.21318944,70.1698,04/27.0/2019,2000,H 6.5,0.15
# From MPO545886
2013 JW63,e,7.7253,309.6472,11.7173,45.96859,0.0031624,0.10551333,298.4271,05/31.0/2020,2000,H 5.0,0.15
# From MPO473311
2014 DT112,e,40.4927,158.9478,321.8173,47.90416,0.0029727,0.72216308,8.8380,04/27.0/2019,2000,H10.4,0.15
# From MPO691591
5145 Pholus,e,24.6292,119.4250,354.7072,20.33139,0.0107511,0.57047610,119.5787,01/21.0/2022,2000,H 7.07,0.15
# From MPO135426
7066 Nessus,e,15.6630,31.1829,170.9619,24.64124,0.0080577,0.51893502,80.0317,04/27.0/2019,2000,H 9.6,0.15
# From MPO691648
8405 Asbolus,e,17.6132,5.8212,290.6394,18.03647,0.0128670,0.62107446,91.4064,01/21.0/2022,2000,H 9.21,0.15
# From MPO691682
10199 Chariklo,e,23.3593,300.4363,242.8709,15.82302,0.0156592,0.16766360,103.2622,01/21.0/2022,2000,H 6.54,0.15
# From MPO691685
10370 Hylonome,e,4.1400,178.2870,6.8859,25.11956,0.0078286,0.24390077,76.2205,01/21.0/2022,2000,H 8.20,0.15
# From MPO691787
15760 Albion,e,2.1782,359.2445,3.5472,44.17468,0.0033569,0.07501044,33.3645,01/21.0/2022,2000,H 7.19,0.15
# From MPO691787
15788  (15788),e,1.9357,354.6463,78.8382,39.40324,0.0039848,0.32119763,358.9843,01/21.0/2022,2000,H 7.94,0.15
# From MPO691787
15789  (15789),e,5.1450,354.4797,318.4411,39.73516,0.0039350,0.18861793,72.4506,01/21.0/2022,2000,H 7.09,0.15
# From MPO691788
15807  (15807),e,0.5625,176.7521,301.8235,43.58975,0.0034247,0.05857860,84.3809,01/21.0/2022,2000,H 7.32,0.15
# From MPO691788
15809  (15809),e,14.0489,56.3719,237.9319,42.55139,0.0035509,0.22324980,357.8179,01/21.0/2022,2000,H 7.64,0.15
# From MPO691788
15810 Arawn,e,3.7959,144.8172,104.7948,39.61449,0.0039530,0.12000303,35.3253,01/21.0/2022,2000,H 7.70,0.15
# From MPO691788
15820  (15820),e,12.1442,317.2582,98.6879,39.60368,0.0039546,0.31924087,4.5362,01/21.0/2022,2000,H 7.59,0.15
# From MPO691788
15836  (15836),e,6.5650,127.5777,330.3497,36.18142,0.0045287,0.07202208,70.6317,01/21.0/2022,2000,H 8.06,0.15
# From MPO691789
